[{"OBJECT_NAME":"SINOD-D 1","OBJECT_ID":"2015-058E","EPOCH":"2026-03-09T16:57:39.773376","MEAN_MOTION":14.95054547,"ECCENTRICITY":0.01172808,"INCLINATION":64.7759,"RA_OF_ASC_NODE":210.2419,"ARG_OF_PERICENTER":93.1753,"MEAN_ANOMALY":268.2787,"EPHEMERIS_TYPE":0,"CLASSIFICATION_TYPE":"U","NORAD_CAT_ID":40968,"ELEMENT_SET_NO":999,"REV_AT_EPOCH":10178,"BSTAR":0.00050694767,"MEAN_MOTION_DOT":6.216e-5,"MEAN_MOTION_DDOT":0},{"OBJECT_NAME":"COSMOS 2251 DEB","OBJECT_ID":"1993-036AKK","EPOCH":"2026-03-07T20:34:24.246912","MEAN_MOTION":14.64159108,"ECCENTRICITY":0.00360205,"INCLINATION":74.1333,"RA_OF_ASC_NODE":135.7836,"ARG_OF_PERICENTER":357.6194,"MEAN_ANOMALY":2.4797,"EPHEMERIS_TYPE":0,"CLASSIFICATION_TYPE":"U","NORAD_CAT_ID":35441,"ELEMENT_SET_NO":999,"REV_AT_EPOCH":88675,"BSTAR":0.0019139953,"MEAN_MOTION_DOT":0.00010147,"MEAN_MOTION_DDOT":0}]
